GLOBALSTAR M035         
1 25851U 99037A   25010.48368912 -.00000040  00000+0  87949-3 0  9992
2 25851  51.9969  46.6586 0013822  88.1804  14.8435 11.04535717 78837
GLOBALSTAR M032         
1 25852U 99037B   25010.58642862 -.00000054  00000+0  39551-3 0  9994
2 25852  51.9928 242.5013 0009939 264.9207  95.0458 11.19055425117143
GLOBALSTAR M051         
1 25853U 99037C   25010.44427512 -.00000072  00000+0  81864-5 0  9999
2 25853  51.9808  61.4274 0000672 259.9525 100.1210 11.42200066114364
GLOBALSTAR M030         
1 25854U 99037D   25010.33108211 -.00000030  00000+0  95206-3 0  9997
2 25854  51.9849 237.8451 0004493 114.7026 245.4258 11.55103346131805
GLOBALSTAR M048         
1 25872U 99041A   25010.33668830 -.00000058  00000+0  32559-3 0  9992
2 25872  51.9400 350.6183 0013177 272.3902 239.1960 11.33853203107079
GLOBALSTAR M026         
1 25873U 99041B   25010.56284887 -.00000118  00000+0 -19905-2 0  9991
2 25873  51.9979 166.0983 0001564  38.2209  48.1642 11.06826096131032
GLOBALSTAR M043         
1 25874U 99041C   25010.58364466 -.00000052  00000+0  47157-3 0  9993
2 25874  51.9408  91.3956 0013219  46.9978  95.9095 11.25689908105122
GLOBALSTAR M028         
1 25875U 99041D   25010.54229608 -.00000047  00000+0  34631-3 0  9995
2 25875  51.9638 303.1339 0063825  88.7455 272.0717 12.50574309170453
